{
  "type": "FeatureCollection",
  "features": [
    {
      "type": "Feature",
      "properties": {
        "norad_id": 32129,
        "name": "FENGYUN 1C DEB",
        "group": "fengyun-1c-debris",
        "lat": -45.969676907165024,
        "lon": 129.61045322148226,
        "alt_km": 765.1494744651209,
        "timestamp": "2025-12-27T03:58:44.436412+00:00",
        "meta_object_name": "FENGYUN 1C DEB",
        "meta_object_id": "1999-025CRX",
        "meta_epoch": "2025-12-24T07:24:14.641056",
        "meta_mean_motion": 14.28606563,
        "meta_eccentricity": 0.00672143,
        "meta_inclination": 99.0579,
        "meta_ra_of_asc_node": 117.1473,
        "meta_arg_of_pericenter": 0.1462,
        "meta_mean_anomaly": 26.8014,
        "meta_ephemeris_type": 0,
        "meta_classification_type": "U",
        "meta_norad_cat_id": 32129,
        "meta_element_set_no": 999,
        "meta_rev_at_epoch": 94392,
        "meta_bstar": 0.0021405461,
        "meta_mean_motion_dot": 5.462e-05,
        "meta_mean_motion_ddot": 0,
        "tle_line1": "1 32129U 99025CRX 25358.30850279  .00005462  00000+0  21405-2 0  9999",
        "tle_line2": "2 32129  99.0579 117.1473 0067214   0.1462  26.8014 14.28606563943924"
      },
      "geometry": {
        "type": "Point",
        "coordinates": [
          129.61045322148226,
          -45.969676907165024
        ]
      }
    },
    {
      "type": "Feature",
      "properties": {
        "norad_id": 32130,
        "name": "FENGYUN 1C DEB",
        "group": "fengyun-1c-debris",
        "lat": -71.27732340095743,
        "lon": -164.2577394451197,
        "alt_km": 714.9247210149279,
        "timestamp": "2025-12-27T03:58:44.436421+00:00",
        "meta_object_name": "FENGYUN 1C DEB",
        "meta_object_id": "1999-025CRY",
        "meta_epoch": "2025-12-26T09:56:29.465088",
        "meta_mean_motion": 14.37585253,
        "meta_eccentricity": 0.0082315,
        "meta_inclination": 98.904,
        "meta_ra_of_asc_node": 167.4124,
        "meta_arg_of_pericenter": 289.5503,
        "meta_mean_anomaly": 69.6808,
        "meta_ephemeris_type": 0,
        "meta_classification_type": "U",
        "meta_norad_cat_id": 32130,
        "meta_element_set_no": 999,
        "meta_rev_at_epoch": 96431,
        "meta_bstar": 0.00049976,
        "meta_mean_motion_dot": 1.51e-05,
        "meta_mean_motion_ddot": 0,
        "tle_line1": "1 32130U 99025CRY 25360.41422992  .00001510  00000+0  49976-3 0  9997",
        "tle_line2": "2 32130  98.9040 167.4124 0082315 289.5503  69.6808 14.37585253964310"
      },
      "geometry": {
        "type": "Point",
        "coordinates": [
          -164.2577394451197,
          -71.27732340095743
        ]
      }
    },
    {
      "type": "Feature",
      "properties": {
        "norad_id": 32133,
        "name": "FENGYUN 1C DEB",
        "group": "fengyun-1c-debris",
        "lat": 9.315793304277715,
        "lon": 0.25618600742563846,
        "alt_km": 816.8541146315756,
        "timestamp": "2025-12-27T03:58:44.436430+00:00",
        "meta_object_name": "FENGYUN 1C DEB",
        "meta_object_id": "1999-025CSB",
        "meta_epoch": "2025-12-26T11:00:03.872160",
        "meta_mean_motion": 14.18082233,
        "meta_eccentricity": 0.0036315,
        "meta_inclination": 98.4322,
        "meta_ra_of_asc_node": 0.9785,
        "meta_arg_of_pericenter": 62.3488,
        "meta_mean_anomaly": 298.1367,
        "meta_ephemeris_type": 0,
        "meta_classification_type": "U",
        "meta_norad_cat_id": 32133,
        "meta_element_set_no": 999,
        "meta_rev_at_epoch": 95169,
        "meta_bstar": 0.00019702,
        "meta_mean_motion_dot": 3.66e-06,
        "meta_mean_motion_ddot": 0,
        "tle_line1": "1 32133U 99025CSB 25360.45837815  .00000366  00000+0  19702-3 0  9990",
        "tle_line2": "2 32133  98.4322   0.9785 0036315  62.3488 298.1367 14.18082233951698"
      },
      "geometry": {
        "type": "Point",
        "coordinates": [
          0.25618600742563846,
          9.315793304277715
        ]
      }
    },
    {
      "type": "Feature",
      "properties": {
        "norad_id": 32134,
        "name": "FENGYUN 1C DEB",
        "group": "fengyun-1c-debris",
        "lat": 42.14193589921767,
        "lon": -3.8656592491895454,
        "alt_km": 1003.0140112004983,
        "timestamp": "2025-12-27T03:58:44.436440+00:00",
        "meta_object_name": "FENGYUN 1C DEB",
        "meta_object_id": "1999-025CSC",
        "meta_epoch": "2025-12-26T06:08:05.282016",
        "meta_mean_motion": 14.21600532,
        "meta_eccentricity": 0.0259188,
        "meta_inclination": 98.5954,
        "meta_ra_of_asc_node": 3.1134,
        "meta_arg_of_pericenter": 224.2529,
        "meta_mean_anomaly": 203.1994,
        "meta_ephemeris_type": 0,
        "meta_classification_type": "U",
        "meta_norad_cat_id": 32134,
        "meta_element_set_no": 999,
        "meta_rev_at_epoch": 95339,
        "meta_bstar": 0.0005165,
        "meta_mean_motion_dot": 1.544e-05,
        "meta_mean_motion_ddot": 0,
        "tle_line1": "1 32134U 99025CSC 25360.25561669  .00001544  00000+0  51650-3 0  9997",
        "tle_line2": "2 32134  98.5954   3.1134 0259188 224.2529 203.1994 14.21600532953397"
      },
      "geometry": {
        "type": "Point",
        "coordinates": [
          -3.8656592491895454,
          42.14193589921767
        ]
      }
    },
    {
      "type": "Feature",
      "properties": {
        "norad_id": 32137,
        "name": "FENGYUN 1C DEB",
        "group": "fengyun-1c-debris",
        "lat": 39.59646443486123,
        "lon": 122.12827735853035,
        "alt_km": 540.4502633862103,
        "timestamp": "2025-12-27T03:58:44.436449+00:00",
        "meta_object_name": "FENGYUN 1C DEB",
        "meta_object_id": "1999-025CSF",
        "meta_epoch": "2025-12-23T02:32:31.228800",
        "meta_mean_motion": 14.81363769,
        "meta_eccentricity": 0.01866336,
        "meta_inclination": 98.4426,
        "meta_ra_of_asc_node": 124.9072,
        "meta_arg_of_pericenter": 0.8839,
        "meta_mean_anomaly": 359.2666,
        "meta_ephemeris_type": 0,
        "meta_classification_type": "U",
        "meta_norad_cat_id": 32137,
        "meta_element_set_no": 999,
        "meta_rev_at_epoch": 66884,
        "meta_bstar": 0.00071247012,
        "meta_mean_motion_dot": 7.465e-05,
        "meta_mean_motion_ddot": 0,
        "tle_line1": "1 32137U 99025CSF 25357.10591700  .00007465  00000+0  71247-3 0  9991",
        "tle_line2": "2 32137  98.4426 124.9072 0186633   0.8839 359.2666 14.81363769668848"
      },
      "geometry": {
        "type": "Point",
        "coordinates": [
          122.12827735853035,
          39.59646443486123
        ]
      }
    },
    {
      "type": "Feature",
      "properties": {
        "norad_id": 32143,
        "name": "FENGYUN 1C DEB",
        "group": "fengyun-1c-debris",
        "lat": -60.69878285510487,
        "lon": -6.7148905339334455,
        "alt_km": 886.5112336241973,
        "timestamp": "2025-12-27T03:58:44.436458+00:00",
        "meta_object_name": "FENGYUN 1C DEB",
        "meta_object_id": "1999-025CSM",
        "meta_epoch": "2025-12-22T15:53:13.985088",
        "meta_mean_motion": 14.17977849,
        "meta_eccentricity": 0.01046236,
        "meta_inclination": 98.598,
        "meta_ra_of_asc_node": 333.2831,
        "meta_arg_of_pericenter": 80.3341,
        "meta_mean_anomaly": 280.9635,
        "meta_ephemeris_type": 0,
        "meta_classification_type": "U",
        "meta_norad_cat_id": 32143,
        "meta_element_set_no": 999,
        "meta_rev_at_epoch": 96074,
        "meta_bstar": 0.00015176615,
        "meta_mean_motion_dot": 2.86e-06,
        "meta_mean_motion_ddot": 0,
        "tle_line1": "1 32143U 99025CSM 25356.66196742  .00000286  00000+0  15177-3 0  9999",
        "tle_line2": "2 32143  98.5980 333.2831 0104623  80.3341 280.9635 14.17977849960748"
      },
      "geometry": {
        "type": "Point",
        "coordinates": [
          -6.7148905339334455,
          -60.69878285510487
        ]
      }
    },
    {
      "type": "Feature",
      "properties": {
        "norad_id": 32150,
        "name": "FENGYUN 1C DEB",
        "group": "fengyun-1c-debris",
        "lat": -7.952729954299562,
        "lon": -155.7057759043701,
        "alt_km": 811.1083958348509,
        "timestamp": "2025-12-27T03:58:44.436470+00:00",
        "meta_object_name": "FENGYUN 1C DEB",
        "meta_object_id": "1999-025CSU",
        "meta_epoch": "2025-12-25T21:32:09.470112",
        "meta_mean_motion": 14.60695346,
        "meta_eccentricity": 0.0171392,
        "meta_inclination": 99.1909,
        "meta_ra_of_asc_node": 24.1832,
        "meta_arg_of_pericenter": 27.8988,
        "meta_mean_anomaly": 333.1271,
        "meta_ephemeris_type": 0,
        "meta_classification_type": "U",
        "meta_norad_cat_id": 32150,
        "meta_element_set_no": 999,
        "meta_rev_at_epoch": 97898,
        "meta_bstar": 0.00016863,
        "meta_mean_motion_dot": 9.42e-06,
        "meta_mean_motion_ddot": 0,
        "tle_line1": "1 32150U 99025CSU 25359.89733183  .00000942  00000+0  16863-3 0  9993",
        "tle_line2": "2 32150  99.1909  24.1832 0171392  27.8988 333.1271 14.60695346978980"
      },
      "geometry": {
        "type": "Point",
        "coordinates": [
          -155.7057759043701,
          -7.952729954299562
        ]
      }
    }
  ]
}